STARLINK-5075           
1 53990U 22125AC  22289.16667824  .00085044  00000+0  60641-3 0  9991
2 53990  53.2213  41.0930 0001712  32.5212 255.2365 15.73115880  1993
STARLINK-5118           
1 53991U 22125AD  22288.91668981 -.00548616  00000+0 -25603-2 0  9998
2 53991  53.2172  42.0052 0001602  33.9643  79.8509 15.83923214  1309
STARLINK-5108           
1 53992U 22125AE  22288.91668981 -.00002131  00000+0 -10768-4 0  9994
2 53992  53.2173  42.3210 0001503  40.7483 271.4442 15.73205185  1303
STARLINK-5121           
1 53993U 22125AF  22289.16667824  .00083606  00000+0  59527-3 0  9997
2 53993  53.2197  41.0922 0001342  43.3694 243.8981 15.73157845  1995
STARLINK-5125           
1 53994U 22125AG  22289.16667824  .00036606  00000+0  26409-3 0  9999
2 53994  53.2189  41.0856 0001742  31.7319 259.5010 15.73200736  1997
STARLINK-5097           
1 53995U 22125AH  22289.16667824  .00001021  00000+0  11666-4 0  9993
2 53995  53.2187  41.0890 0001727 351.7842 297.5524 15.73261958  1998
STARLINK-5131           
1 53996U 22125AJ  22289.16667824  .00082758  00000+0  59006-3 0  9999
2 53996  53.2213  41.0845 0001652  31.2517 260.6302 15.73128990  1998
STARLINK-5130           
1 53997U 22125AK  22288.91668981  .00056143  00000+0  40412-3 0  9997
2 53997  53.2211  42.3256 0001652  33.2709 280.4617 15.73062918  1303
STARLINK-5128           
1 53998U 22125AL  22289.16667824 -.00011847  00000+0 -79972-4 0  9999
2 53998  53.2187  41.0826 0001759  26.9639 266.0112 15.73237913  1998
STARLINK-5079           
1 53999U 22125AM  22288.91668981 -.00002090  00000+0 -10472-4 0  9997
2 53999  53.2173  42.3173 0001529  39.7206 274.2602 15.73205174  1304
STARLINK-5088           
1 54000U 22125AN  22289.16667824 -.00011647  00000+0 -78779-4 0  9996
2 54000  53.2198  41.0806 0001296  30.0240 263.7413 15.73171219  1997
STARLINK-5105           
1 54001U 22125AP  22289.16667824  .00091665  00000+0  65292-3 0  9998
2 54001  53.2215  41.0794 0001531  32.8483 261.4444 15.73110420  1980
STARLINK-5109           
1 54002U 22125AQ  22289.16667824 -.00559539  00000+0 -41535-2 0  9993
2 54002  53.2175  41.0523 0001828  34.7518 278.6125 15.73749490  1986
STARLINK-5114           
1 54003U 22125AR  22288.91668981 -.00002075  00000+0 -10360-4 0  9993
2 54003  53.2173  42.3136 0001690  34.0459 281.7231 15.73205175  1309
STARLINK-5129           
1 54004U 22125AS  22288.91668981 -.00069420  00000+0 -49194-3 0  9997
2 54004  53.2197  42.3144 0001982 333.8677 345.5257 15.73308318  1301
STARLINK-5135           
1 54005U 22125AT  22289.16667824 -.00034186  00000+0 -23979-3 0  9995
2 54005  53.2188  41.0784 0001740  35.6673 259.2169 15.73232930  1986
STARLINK-5096           
1 54006U 22125AU  22288.91668981 -.00119993  00000+0 -86024-3 0  9993
2 54006  53.2228  42.3088 0001660  38.2536 284.2013 15.73267378  1307
STARLINK-5132           
1 54007U 22125AV  22288.91668981 -.00001928  00000+0 -93197-5 0  9993
2 54007  53.2173  42.3052 0001474  42.1213 277.8206 15.73205125  1301
STARLINK-5145           
1 54008U 22125AW  22289.16667824  .00076079  00000+0  40971-3 0  9994
2 54008  53.2199  40.9500 0001495   0.8086 356.5214 15.79545266  1981
STARLINK-5099           
1 54009U 22125AX  22288.91668981 -.00116639  00000+0 -83580-3 0  9994
2 54009  53.2229  42.3103 0001780  25.3086 295.9344 15.73265337  1308
STARLINK-5127           
1 54010U 22125AY  22289.16667824  .00006254  00000+0  39556-4 0  9993
2 54010  53.2253  40.9872 0002026  18.7287 321.1210 15.78222424  1980
STARLINK-5124           
1 54011U 22125AZ  22289.16667824  .00131989  00000+0  93671-3 0  9995
2 54011  53.2216  41.0729 0001352  37.7350 259.8422 15.73035225  1984
STARLINK-5126           
1 54012U 22125BA  22288.91668981 -.00115229  00000+0 -82614-3 0  9999
2 54012  53.2233  42.3036 0001731  28.8142 296.0308 15.73247632  1309
STARLINK-5098           
1 54013U 22125BB  22289.16667824 -.00071453  00000+0 -50833-3 0  9991
2 54013  53.2209  41.0673 0001914  29.3748 270.9313 15.73229531  1986
STARLINK-5116           
1 54014U 22125BC  22289.16667824  .00210873  00000+0  14772-2 0  9992
2 54014  53.2225  41.0667 0001781  32.2319 268.8308 15.73077469  1988
STARLINK-5055           
1 54015U 22125BD  22289.16667824 -.00017489  00000+0 -12043-3 0  9993
2 54015  53.2204  41.0626 0001678  33.9619 268.7279 15.73202846  1982
FALCON 9 DEB            
1 54016U 22125BE  22288.75524497  .00276091  39741-4  81716-3 0  9992
2 54016  53.2331  42.6380 0009573 326.3951  33.6469 15.92038591  1871
FALCON 9 DEB            
1 54017U 22125BF  22288.68944764  .00323948  51180-4  92060-3 0  9997
2 54017  53.2321  42.9368 0007370 326.3371  33.7188 15.92818124  1865
FALCON 9 DEB            
1 54018U 22125BG  22288.74513233  .00358276  61318-4  93987-3 0  9993
2 54018  53.2280  42.5637 0010061 303.5567  56.4501 15.94266828  1872
FALCON 9 DEB            
1 54019U 22125BH  22288.74360764  .00334962  54882-4  87812-3 0  9997
2 54019  53.2265  42.5502 0007737 288.4520  71.5668 15.94329447  1872
CENTISPACE-1 S5         
1 54020U 22126A   22288.89047987  .00005831  00000+0  12996-2 0  9993
2 54020  55.0000 153.7673 0012711 313.0691  46.9044 14.57930345  1223
CENTISPACE-1 S6         
1 54021U 22126B   22289.09477498  .00002880  00000+0  65889-3 0  9992
2 54021  54.9987 152.9397 0014393 312.3089  47.6702 14.58144266  1242
CZ-11H R/B              
1 54022U 22126C   22288.89024236  .00032646  00000+0  56757-3 0  9995
2 54022  56.1484 152.0980 0339368 328.4379  29.6711 15.06115415  1259
GAZELLE                 
1 54023U 22127A   22288.58695646 -.00000043  00000+0  00000+0 0  9995
2 54023  98.3141 287.7527 0012363 275.5140  84.4636 14.41642774  1135
ELECTRON KICK STAGE R/B 
1 54024U 22127B   22289.23834492  .00005395  00000+0  73025-3 0  9998
2 54024  98.2931 288.7763 0141493 355.2563   4.7288 14.72660725  1247
ELECTRON R/B            
1 54025U 22127C   22288.86727679  .00151045  68510-5  15138-2 0  9995
2 54025  98.3335 289.0528 0347091 190.8950 168.4642 15.16286784  1234
2022-128A               
1 54026U 22128A   22287.80000000 -.00000201  00000+0  00000+0 0  9993
2 54026  26.5320 192.1410 7254180 180.3880  46.4950  2.27885768   258
2022-128B               
1 54027U 22128B   22287.70000000 -.00000102  00000+0  00000+0 0  9993
2 54027  26.5810 191.7400 7060108 180.5950 346.6400  2.52590896   227
2022-128C               
1 54028U 22128C   22288.67901397  .00005305  00000+0  14327-2 0  9999
2 54028  26.8445 190.0576 5936203 183.8658 214.0521  4.11952009   270
ASO-S                   
1 54029U 22129A   22289.20668807 -.00001661  00000+0 -40982-3 0  9997
2 54029  98.2675 294.5967 0013630 245.2556 114.7264 14.50847538  1048
CZ-2D R/B               
1 54030U 22129B   22289.25613355  .00000346  00000+0  90893-4 0  9996
2 54030  98.1945 294.5595 0019624  93.9395 266.4038 14.54801332  1055
COSMOS 2559 [GLONASS-K] 
1 54031U 22130A   22287.39487059 -.00000090  00000+0  00000+0 0  9995
2 54031  64.7801   1.5135 0002004 330.3772  13.5624  2.12836767    88
FREGAT R/B              
1 54032U 22130B   22284.14949806 -.00000087  00000+0  00000+0 0  9995
2 54032  64.8932   1.6824 0035362 228.7163 143.8243  2.11225083    06
ANGOSAT 2               
1 54033U 22131A   22288.86776684  .00000058  00000+0  00000+0 0  9999
2 54033   0.0305   3.6592 0001681  85.4509 320.7409  0.98860372    49
HJ-2E                   
1 54035U 22132A   22289.22595184  .00012805  00000+0  53557-3 0  9999
2 54035  97.3949 294.7352 0011796 260.4052 161.1343 15.23656931   498
2022-132B               
1 54036U 22132B   22289.08382716  .00156176  00000+0  49350-2 0  9994
2 54036  97.3564 294.6215 0035265 316.3247 130.1901 15.31573853   477
2022-132C               
1 54037U 22132C   22289.17552642  .00017012  00000+0  16567-2 0  9991
2 54037  97.6512 294.5320 0189277 161.0832 199.7545 14.80014621   479
2022-132D               
1 54038U 22132D   22289.17081893  .00047861  00000+0  23707-2 0  9996
2 54038  97.5882 294.6743 0099570 222.5461 136.8020 15.13284158   488
CZ-2C R/B               
1 54039U 22132E   22289.11331794  .00006028  00000+0  31197-3 0  9992
2 54039  97.2513 294.3497 0047112 200.1797 233.0132 15.15608619   476
2022-132F               
1 54040U 22132F   22289.11800300  .00038824  00000+0  21832-2 0  9991
2 54040  97.1595 294.5015 0122927 213.0603 146.2898 15.06863696   474
2022-132G               
1 54041U 22132G   22289.15709037  .00019196  00000+0  16659-2 0  9993
2 54041  97.1916 294.4606 0151349 158.3536 202.4169 14.88579112   475
2022-133A               
1 54042U 22133A   22289.10538848  .00029257  00000+0  11580-2 0  9997
2 54042  34.9988 278.5228 0009271 281.5229 158.6826 15.24467169   203
2022-133B               
1 54043U 22133B   22289.10519208  .00013812  00000+0  54522-3 0  9991
2 54043  34.9976 278.5205 0009260 288.3989 151.7817 15.24673589   201
2022-133C               
1 54044U 22133C   22289.17405529  .00030556  00000+0  11978-2 0  9990
2 54044  34.9990 278.0869 0009880 290.0258 169.1456 15.24776900   210
2022-133D               
1 54045U 22133D   22289.17381794  .00020230  00000+0  78971-3 0  9993
2 54045  34.9973 278.0850 0009435 297.2580 161.7092 15.24987628   210
2022-133E               
1 54046U 22133E   22289.10555036  .00008970  00000+0  35930-3 0  9994
2 54046  34.9978 278.5241 0007997 276.5403 163.7315 15.24268130   209
2022-134A               
1 54048U 22134A   22289.21419907 -.00199434  00000+0 -10152+1 0  9999
2 54048  26.8257 300.7511 8046809 180.3123 111.2411  1.34746580    02
2022-134B               
1 54049U 22134B   22289.21420181 -.00004919  00000+0 -29127-1 0  9992
2 54049  26.8833 300.6458 8041668 180.3844 111.4263  1.34857304    04
2022-135A               
1 54050U 22135A   22289.09148356  .00225538  00000+0  13005-2 0  9991
2 54050  96.3494  17.0750 0011693 245.9166 202.3695 15.77964058    36
